[{"OBJECT_NAME":"HODOYOSHI-3","OBJECT_ID":"2014-033F","EPOCH":"2026-03-09T21:11:10.652352","MEAN_MOTION":14.85138877,"ECCENTRICITY":0.00320899,"INCLINATION":97.6303,"RA_OF_ASC_NODE":235.9902,"ARG_OF_PERICENTER":323.6224,"MEAN_ANOMALY":36.2811,"EPHEMERIS_TYPE":0,"CLASSIFICATION_TYPE":"U","NORAD_CAT_ID":40015,"ELEMENT_SET_NO":999,"REV_AT_EPOCH":63288,"BSTAR":0.00019822754,"MEAN_MOTION_DOT":1.659e-5,"MEAN_MOTION_DDOT":0},{"OBJECT_NAME":"CZ-6A DEB","OBJECT_ID":"2022-151UN","EPOCH":"2026-03-08T16:39:41.008896","MEAN_MOTION":14.75690404,"ECCENTRICITY":0.00792316,"INCLINATION":98.6271,"RA_OF_ASC_NODE":141.9444,"ARG_OF_PERICENTER":186.8863,"MEAN_ANOMALY":173.1263,"EPHEMERIS_TYPE":0,"CLASSIFICATION_TYPE":"U","NORAD_CAT_ID":54997,"ELEMENT_SET_NO":999,"REV_AT_EPOCH":17513,"BSTAR":0.0033974532,"MEAN_MOTION_DOT":0.0002446,"MEAN_MOTION_DDOT":0}]
